H1 CPF 01  gfz 2022 09 30 00  7731 terrasarx 
H2 0702601  6201 31698    2022 09 30 00 59 42 2022 10 05 00 00 42   120 1 1  0 0 0
H9
10 0 59855  42462.000000  0      97717.843  -6508764.077  -2264310.575
10 0 59855  42582.000000  0     -86197.117  -6157822.299  -3095908.360
10 0 59855  42702.000000  0    -261501.372  -5696434.099  -3873175.685
10 0 59855  42822.000000  0    -423284.979  -5132937.694  -4582543.121
10 0 59855  42942.000000  0    -567041.755  -4477514.666  -5211661.271
10 0 59855  43062.000000  0    -688777.154  -3741994.619  -5749608.880
10 0 59855  43182.000000  0    -785102.526  -2939632.386  -6187073.099
10 0 59855  43302.000000  0    -853314.181  -2084863.091  -6516499.817
10 0 59855  43422.000000  0    -891456.095  -1193040.157  -6732212.471
10 0 59855  43542.000000  0    -898365.582   -280161.590  -6830500.055
10 0 59855  43662.000000  0    -873700.701    637412.726  -6809673.765
10 0 59855  43782.000000  0    -817949.202   1543246.823  -6670091.859
10 0 59855  43902.000000  0    -732419.535   2421115.436  -6414154.148
10 0 59855  44022.000000  0    -619213.625   3255287.748  -6046266.079
10 0 59855  44142.000000  0    -481181.395   4030806.345  -5572771.965
10 0 59855  44262.000000  0    -321857.652   4733755.028  -5001855.676
10 0 59855  44382.000000  0    -145382.878   5351512.162  -4343411.017
10 0 59855  44502.000000  0      43591.076   5872985.228  -3608880.586
10 0 59855  44622.000000  0     240009.056   6288820.105  -2811064.988
10 0 59855  44742.000000  0     438532.134   6591580.979  -1963905.451
10 0 59855  44862.000000  0     633666.098   6775896.470  -1082241.938
10 0 59855  44982.000000  0     819896.060   6838566.731   -181550.835
10 0 59855  45102.000000  0     991823.775   6778628.165    722332.441
10 0 59855  45222.000000  0    1144304.026   6597372.605   1613499.861
10 0 59855  45342.000000  0    1272575.284   6298321.439   2476258.884
10 0 59855  45462.000000  0    1372382.275   5887155.959   3295416.491
10 0 59855  45582.000000  0    1440088.002   5371605.031   4056554.379
10 0 59855  45702.000000  0    1472772.551   4761291.678   4746287.497
10 0 59855  45822.000000  0    1468314.799   4067542.914   5352503.827
10 0 59855  45942.000000  0    1425454.589   3303167.350   5864573.049
10 0 59855  46062.000000  0    1343837.209   2482212.004   6273527.889
10 0 59855  46182.000000  0    1224037.006   1619697.943   6572216.401
10 0 59855  46302.000000  0    1067560.806    731340.708   6755421.050
10 0 59855  46422.000000  0     876830.806   -166737.498   6819943.044
10 0 59855  46542.000000  0     655147.358  -1058298.844   6764655.557
10 0 59855  46662.000000  0     406631.700  -1927283.615   6590523.215
10 0 59855  46782.000000  0     136149.350  -2758099.307   6300586.481
10 0 59855  46902.000000  0    -150784.230  -3535902.087   5899911.090
10 0 59855  47022.000000  0    -448113.140  -4246862.693   5395502.249
10 0 59855  47142.000000  0    -749364.483  -4878414.383   4796189.380
10 0 59855  47262.000000  0   -1047785.014  -5419482.997   4112480.345
10 0 59855  47382.000000  0   -1336488.414  -5860691.907   3356380.965
10 0 59855  47502.000000  0   -1608608.647  -6194533.750   2541184.860
10 0 59855  47622.000000  0   -1857456.688  -6415507.388   1681239.286
10 0 59855  47742.000000  0   -2076677.549  -6520216.452    791688.184
10 0 59855  47862.000000  0   -2260401.208  -6507425.097   -111802.011
10 0 59855  47982.000000  0   -2403384.664  -6378070.499  -1013326.850
10 0 59855  48102.000000  0   -2501141.828  -6135231.443  -1897032.559
10 0 59855  48222.000000  0   -2550058.225  -5784054.153  -2747402.739
10 0 59855  48342.000000  0   -2547487.204  -5331637.067  -3549537.230
10 0 59855  48462.000000  0   -2491825.000  -4786877.337  -4289416.132
10 0 59855  48582.000000  0   -2382563.340  -4160284.956  -4954142.901
10 0 59855  48702.000000  0   -2220319.271  -3463770.493  -5532163.341
10 0 59855  48822.000000  0   -2006842.183  -2710411.393  -6013458.304
10 0 59855  48942.000000  0   -1744997.515  -1914201.161  -6389707.708
10 0 59855  49062.000000  0   -1438727.417  -1089786.892  -6654422.835
10 0 59855  49182.000000  0   -1092990.934   -252201.149  -6803046.721
10 0 59855  49302.000000  0    -713684.432    583407.581  -6833023.482
10 0 59855  49422.000000  0    -307542.196   1402041.911  -6743837.283
10 0 59855  49542.000000  0     117979.856   2189117.614  -6537019.904
10 0 59855  49662.000000  0     554836.414   2930717.327  -6216129.021
10 0 59855  49782.000000  0     994541.715   3613834.131  -5786694.557
10 0 59855  49902.000000  0    1428330.069   4226598.744  -5256131.788
10 0 59855  50022.000000  0    1847326.569   4758488.119  -4633625.207
10 0 59855  50142.000000  0    2242725.858   5200513.098  -3929980.708
10 0 59855  50262.000000  0    2605974.542   5545378.752  -3157446.762
10 0 59855  50382.000000  0    2928954.041   5787615.031  -2329508.561
10 0 59855  50502.000000  0    3204160.302   5923674.160  -1460655.973
10 0 59855  50622.000000  0    3424875.024   5951991.215   -566129.012
10 0 59855  50742.000000  0    3585323.384   5873005.150    338354.246
10 0 59855  50862.000000  0    3680814.345   5689139.267   1236880.700
10 0 59855  50982.000000  0    3707860.793   5404741.659   2113629.712
10 0 59855  51102.000000  0    3664275.527   5025988.314   2953159.946
10 0 59855  51222.000000  0    3549240.157   4560748.497   3740690.695
10 0 59855  51342.000000  0    3363346.102   4018415.895   4462366.328
10 0 59855  51462.000000  0    3108606.540   3409714.676   5105504.892
10 0 59855  51582.000000  0    2788435.144   2746479.255   5658821.224
10 0 59855  51702.000000  0    2407600.086   2041417.793   6112619.781
10 0 59855  51822.000000  0    1972151.782   1307864.319   6458960.095
10 0 59855  51942.000000  0    1489323.488    559522.610   6691789.605
10 0 59855  52062.000000  0     967408.553   -189790.085   6807042.458
10 0 59855  52182.000000  0     415617.190   -926396.975   6802707.274
10 0 59855  52302.000000  0    -156086.378  -1637011.808   6678860.537
10 0 59855  52422.000000  0    -737163.979  -2308978.271   6437664.825
10 0 59855  52542.000000  0   -1316697.192  -2930495.626   6083332.105
10 0 59855  52662.000000  0   -1883589.758  -3490826.189   5622053.856
10 0 59855  52782.000000  0   -2426778.931  -3980483.620   5061900.713
10 0 59855  52902.000000  0   -2935453.710  -4391399.247   4412688.933
10 0 59855  53022.000000  0   -3399273.783  -4717061.415   3685812.812
10 0 59855  53142.000000  0   -3808582.517  -4952624.451   2894046.434
10 0 59855  53262.000000  0   -4154609.456  -5094985.381   2051319.288
10 0 59855  53382.000000  0   -4429659.802  -5142826.743   1172468.615
10 0 59855  53502.000000  0   -4627285.010  -5096622.812    272972.443
10 0 59855  53622.000000  0   -4742429.981  -4958609.555   -631330.459
10 0 59855  53742.000000  0   -4771553.157  -4732718.885  -1524528.729
10 0 59855  53862.000000  0   -4712715.205  -4424477.879  -2390928.041
10 0 59855  53982.000000  0   -4565634.248  -4040875.747  -3215334.057
10 0 59855  54102.000000  0   -4331707.307  -3590203.800  -3983322.287
10 0 59855  54222.000000  0   -4013998.349  -3081873.216  -4681490.407
10 0 59855  54342.000000  0   -3617193.699  -2526214.515  -5297688.752
10 0 59855  54462.000000  0   -3147526.172  -1934264.211  -5821224.519
10 0 59855  54582.000000  0   -2612671.071  -1317543.785  -6243037.745
10 0 59855  54702.000000  0   -2021615.631   -687835.050  -6555847.527
10 0 59855  54822.000000  0   -1384504.346    -56956.796  -6754265.808
10 0 59855  54942.000000  0    -712465.368    563452.488  -6834878.821
10 0 59855  55062.000000  0     -17419.833   1162143.614  -6796299.648
10 0 59855  55182.000000  0     688124.130   1728455.214  -6639189.165
10 0 59855  55302.000000  0    1391290.569   2252498.957  -6366248.379
10 0 59855  55422.000000  0    2079066.367   2725330.035  -5982177.043
10 0 59855  55542.000000  0    2738537.983   3139099.587  -5493601.044
10 0 59855  55662.000000  0    3357130.976   3487185.616  -4908967.978
10 0 59855  55782.000000  0    3922849.604   3764302.881  -4238413.489
10 0 59855  55902.000000  0    4424512.648   3966588.144  -3493596.058
10 0 59855  56022.000000  0    4851979.893   4091658.261  -2687502.017
10 0 59855  56142.000000  0    5196362.534   4138639.215  -1834223.438
10 0 59855  56262.000000  0    5450213.921   4108165.655   -948712.937
10 0 59855  56382.000000  0    5607694.706   4002349.617    -46518.821
10 0 59855  56502.000000  0    5664708.256   3824719.655    856492.910
10 0 59855  56622.000000  0    5619003.125   3580130.440   1744425.466
10 0 59855  56742.000000  0    5470237.878   3274644.538   2601640.041
10 0 59855  56862.000000  0    5220006.919   2915391.030   3413040.065
10 0 59855  56982.000000  0    4871826.659   2510403.254   4164344.725
10 0 59855  57102.000000  0    4431081.598   2068439.407   4842343.887
10 0 59855  57222.000000  0    3904936.628   1598793.803   5435130.538
10 0 59855  57342.000000  0    3302212.282   1111100.893   5932310.696
10 0 59855  57462.000000  0    2633227.717    615135.752   6325179.982
10 0 59855  57582.000000  0    1909618.404    120618.634   6606868.138
10 0 59855  57702.000000  0    1144131.142   -362973.946   6772454.075
10 0 59855  57822.000000  0     350396.886   -826590.394   6819048.215
10 0 59855  57942.000000  0    -457313.234  -1261772.959   6745838.748
10 0 59855  58062.000000  0   -1264344.130  -1660811.684   6554104.258
10 0 59855  58182.000000  0   -2055921.433  -2016880.961   6247191.299
10 0 59855  58302.000000  0   -2817419.487  -2324155.563   5830459.893
10 0 59855  58422.000000  0   -3534632.646  -2577907.646   5311198.765
10 0 59855  58542.000000  0   -4194045.722  -2774582.107   4698503.599
10 0 59855  58662.000000  0   -4783093.756  -2911847.080   4003121.728
10 0 59855  58782.000000  0   -5290407.567  -2988618.616   3237266.929
10 0 59855  58902.000000  0   -5706040.363  -3005059.848   2414407.306
99
